NORAD_CAT_ID,OBJECT_NAME,OBJECT_TYPE,EPOCH,MEAN_MOTION,ECCENTRICITY,INCLINATION,RA_OF_ASC_NODE,ARG_OF_PERICENTER,MEAN_ANOMALY,BSTAR,MEAN_MOTION_DOT,MEAN_MOTION_DDOT,TLE_LINE0,TLE_LINE1,TLE_LINE2,SEMIMAJOR_AXIS,PERIOD,APOGEE,PERIGEE,DECAYED
55758.0,STARLINK-5072,PAYLOAD,2024-04-17 14:17:20,14.9833662,0.0002554,70.0026,186.8454,250.1543,109.9341,6.2712e-05,6.56e-06,0.0,0 STARLINK-5072,1 55758U 23028T   24108.59537560  .00000656  00000-0  62712-4 0  9999,2 55758  70.0026 186.8454 0002554 250.1543 109.9341 14.98336620 62523,6950.172,96.107,573.812,570.262,0.0
55758.0,STARLINK-5072,PAYLOAD,2024-04-18 12:43:14,14.98317463,0.000246,70.0029,184.4896,241.7471,118.344,-0.00012844,-1.624e-05,0.0,0 STARLINK-5072,1 55758U 23028T   24109.53003424 -.00001624  00000-0 -12844-3 0  9999,2 55758  70.0029 184.4896 0002460 241.7471 118.3440 14.98317463 62665,6950.232,96.108,573.806,570.387,0.0
55758.0,STARLINK-5072,PAYLOAD,2024-04-18 14:19:23,14.98317329,0.0002447,70.0028,184.3212,243.1852,116.9057,-0.00013106,-1.656e-05,0.0,0 STARLINK-5072,1 55758U 23028T   24109.59679480 -.00001656  00000-0 -13106-3 0  9993,2 55758  70.0028 184.3212 0002447 243.1852 116.9057 14.98317329 62679,6950.232,96.108,573.798,570.396,0.0
55758.0,STARLINK-5072,PAYLOAD,2024-04-19 12:45:14,14.98335684,0.0002946,70.0011,181.9621,260.5794,99.5032,9.5956e-05,1.052e-05,0.0,0 STARLINK-5072,1 55758U 23028T   24110.53141962  .00001052  00000-0  95956-4 0  9990,2 55758  70.0011 181.9621 0002946 260.5794  99.5032 14.98335684 62819,6950.175,96.107,574.088,569.993,0.0
55758.0,STARLINK-5072,PAYLOAD,2024-04-19 14:21:22,14.98338304,0.0002629,70.0022,181.7953,252.9205,107.1666,0.00011128,1.235e-05,0.0,0 STARLINK-5072,1 55758U 23028T   24110.59817711  .00001235  00000-0  11128-3 0  9999,2 55758  70.0022 181.7953 0002629 252.9205 107.1666 14.98338304 62829,6950.167,96.106,573.859,570.205,0.0
55758.0,STARLINK-5072,PAYLOAD,2024-04-20 12:47:14,14.98340934,0.0002771,70.0017,179.4385,255.0263,105.0589,0.00036474,4.263e-05,0.0,0 STARLINK-5072,1 55758U 23028T   24111.53281132  .00004263  00000-0  36474-3 0  9991,2 55758  70.0017 179.4385 0002771 255.0263 105.0589 14.98340934 62960,6950.159,96.106,573.95,570.098,0.0
55758.0,STARLINK-5072,PAYLOAD,2024-04-20 14:23:23,14.98346843,0.000275,70.0031,179.2707,255.3931,104.6923,0.00047789,5.616e-05,0.0,0 STARLINK-5072,1 55758U 23028T   24111.59957325  .00005616  00000-0  47789-3 0  9995,2 55758  70.0031 179.2707 0002750 255.3931 104.6923 14.98346843 62977,6950.141,96.106,573.917,570.095,0.0
55758.0,STARLINK-5072,PAYLOAD,2024-04-21 03:12:28,14.98329075,0.0001364,70.0067,177.9303,289.1399,70.9612,-3.4139e-05,-5e-06,0.0,0 STARLINK-5072,1 55758U 23028T   24112.13366688 -.00000500  00000-0 -34139-4 0  9997,2 55758  70.0067 177.9303 0001364 289.1399  70.9612 14.98329075 63054,6950.196,96.107,573.009,571.113,0.0
55758.0,STARLINK-5072,PAYLOAD,2024-04-21 14:25:26,14.98314158,0.0002979,70.0012,176.7432,263.9312,96.1508,-0.00022317,-2.754e-05,0.0,0 STARLINK-5072,1 55758U 23028T   24112.60100555 -.00002754  00000-0 -22317-3 0  9995,2 55758  70.0012 176.7432 0002979 263.9312  96.1508 14.98314158 63120,6950.242,96.108,574.177,570.036,0.0
55758.0,STARLINK-5072,PAYLOAD,2024-04-22 03:14:30,14.98325673,0.0003212,69.9985,175.394,253.0234,107.0574,-5.2406e-05,-7.18e-06,0.0,0 STARLINK-5072,1 55758U 23028T   24113.13507497 -.00000718  00000-0 -52406-4 0  9991,2 55758  69.9985 175.3940 0003212 253.0234 107.0574 14.98325673 63207,6950.206,96.107,574.304,569.839,0.0
55758.0,STARLINK-5072,PAYLOAD,2024-04-22 09:39:00,14.98378684,0.0002582,70.0027,174.7238,254.975,105.1123,-0.0017172,-0.00020548,0.0,0 STARLINK-5072,1 55758U 23028T   24113.40208479 -.00020548  00000-0 -17172-2 0  9991,2 55758  70.0027 174.7238 0002582 254.9750 105.1123 14.98378684 63245,6950.042,96.104,573.702,570.113,0.0
55758.0,STARLINK-5072,PAYLOAD,2024-04-22 14:27:26,14.98336648,0.0002387,70.0035,174.221,260.1639,99.925,0.0002498,2.889e-05,0.0,0 STARLINK-5072,1 55758U 23028T   24113.60238870  .00002889  00000-0  24980-3 0  9993,2 55758  70.0035 174.2210 0002387 260.1639  99.9250 14.98336648 63275,6950.172,96.107,573.696,570.378,0.0
55758.0,STARLINK-5072,PAYLOAD,2024-04-23 04:52:39,14.98330243,0.0002367,70.0034,172.7056,256.9763,103.1132,0.00063791,7.527e-05,0.0,0 STARLINK-5072,1 55758U 23028T   24114.20323381  .00007527  00000-0  63791-3 0  9999,2 55758  70.0034 172.7056 0002367 256.9763 103.1132 14.98330243 63366,6950.192,96.107,573.702,570.412,0.0
55758.0,STARLINK-5072,PAYLOAD,2024-04-23 12:53:19,14.98329742,0.0002616,70.003,171.8637,251.405,108.6825,0.00043578,5.11e-05,0.0,0 STARLINK-5072,1 55758U 23028T   24114.53703339  .00005110  00000-0  43578-3 0  9997,2 55758  70.0030 171.8637 0002616 251.4050 108.6825 14.98329742 63410,6950.194,96.107,573.877,570.241,0.0
55758.0,STARLINK-5072,PAYLOAD,2024-04-24 12:55:19,14.98357095,0.000284,70.0013,169.34,254.1471,105.9375,-0.00028977,-3.551e-05,0.0,0 STARLINK-5072,1 55758U 23028T   24115.53841709 -.00003551  00000-0 -28977-3 0  9997,2 55758  70.0013 169.3400 0002840 254.1471 105.9375 14.98357095 63565,6950.109,96.105,573.948,570.0,0.0
55758.0,STARLINK-5072,PAYLOAD,2024-04-25 04:56:40,14.98329873,0.0002681,70.0013,167.6557,256.9248,103.1612,1.0476e-05,3.2e-07,0.0,0 STARLINK-5072,1 55758U 23028T   24116.20602890  .00000032  00000-0  10476-4 0  9993,2 55758  70.0013 167.6557 0002681 256.9248 103.1612 14.98329873 63662,6950.193,96.107,573.922,570.195,0.0
55758.0,STARLINK-5072,PAYLOAD,2024-04-25 12:57:21,14.98324404,0.0002788,70.0011,166.8143,256.138,103.9469,-3.4307e-05,-5.02e-06,0.0,0 STARLINK-5072,1 55758U 23028T   24116.53983236 -.00000502  00000-0 -34307-4 0  9998,2 55758  70.0011 166.8143 0002788 256.1380 103.9469 14.98324404 63718,6950.21,96.107,574.013,570.137,0.0
55758.0,STARLINK-5072,PAYLOAD,2024-04-26 04:58:41,14.98336822,0.0002947,70.0006,165.1308,261.4315,98.6511,4.8336e-05,4.84e-06,0.0,0 STARLINK-5072,1 55758U 23028T   24117.20742112  .00000484  00000-0  48336-4 0  9993,2 55758  70.0006 165.1308 0002947 261.4315  98.6511 14.98336822 63817,6950.172,96.107,574.085,569.989,0.0
55758.0,STARLINK-5072,PAYLOAD,2024-04-26 12:59:21,14.98340935,0.0002942,70.0005,164.2898,265.2101,94.8722,9.0873e-05,9.92e-06,0.0,0 STARLINK-5072,1 55758U 23028T   24117.54121606  .00000992  00000-0  90873-4 0  9996,2 55758  70.0005 164.2898 0002942 265.2101  94.8722 14.98340935 63867,6950.159,96.106,574.069,569.979,0.0
55758.0,STARLINK-5072,PAYLOAD,2024-04-27 13:01:21,14.98336696,0.0003039,69.9999,161.7622,272.0923,87.9888,0.0001936,2.218e-05,0.0,0 STARLINK-5072,1 55758U 23028T   24118.54261370  .00002218  00000-0  19360-3 0  9994,2 55758  69.9999 161.7622 0003039 272.0923  87.9888 14.98336696 64012,6950.172,96.107,574.149,569.925,0.0
55758.0,STARLINK-5072,PAYLOAD,2024-04-28 03:26:35,14.98322655,0.0002683,70.0005,160.2475,271.5913,88.4938,-9.0376e-05,-1.171e-05,0.0,0 STARLINK-5072,1 55758U 23028T   24119.14346967 -.00001171  00000-0 -90376-4 0  9993,2 55758  70.0005 160.2475 0002683 271.5913  88.4938 14.98322655 64102,6950.216,96.107,573.945,570.216,0.0
55758.0,STARLINK-5072,PAYLOAD,2024-04-28 13:03:24,14.98318776,0.0002741,70.0002,159.2375,272.1052,87.9793,-0.00014687,-1.844e-05,0.0,0 STARLINK-5072,1 55758U 23028T   24119.54403432 -.00001844  00000-0 -14687-3 0  9995,2 55758  70.0002 159.2375 0002741 272.1052  87.9793 14.98318776 64160,6950.228,96.108,573.998,570.188,0.0
55758.0,STARLINK-5072,PAYLOAD,2024-04-28 19:27:56,14.98332355,0.0002893,70.0001,158.5643,273.1546,86.9282,-0.00024984,-3.073e-05,0.0,0 STARLINK-5072,1 55758U 23028T   24119.81106848 -.00003073  00000-0 -24984-3 0  9993,2 55758  70.0001 158.5643 0002893 273.1546  86.9282 14.98332355 64202,6950.186,96.107,574.061,570.04,0.0
55758.0,STARLINK-5072,PAYLOAD,2024-04-29 05:04:44,14.98325964,0.0003102,69.9992,157.5542,273.4855,86.5949,-3.166e-05,-4.71e-06,0.0,0 STARLINK-5072,1 55758U 23028T   24120.21162770 -.00000471  00000-0 -31660-4 0  9994,2 55758  69.9992 157.5542 0003102 273.4855  86.5949 14.98325964 64265,6950.205,96.107,574.226,569.914,0.0
55758.0,STARLINK-5072,PAYLOAD,2024-04-29 11:29:16,14.98328926,0.0003142,69.9991,156.8814,269.9244,90.1555,-4.8961e-05,-6.77e-06,0.0,0 STARLINK-5072,1 55758U 23028T   24120.47866667 -.00000677  00000-0 -48961-4 0  9998,2 55758  69.9991 156.8814 0003142 269.9244  90.1555 14.98328926 64304,6950.196,96.107,574.245,569.877,0.0
55758.0,STARLINK-5072,PAYLOAD,2024-04-30 05:06:45,14.98324077,0.0003145,69.9989,155.0296,268.3821,91.6978,0.00015529,1.76e-05,0.0,0 STARLINK-5072,1 55758U 23028T   24121.21302645  .00001760  00000-0  15529-3 0  9997,2 55758  69.9989 155.0296 0003145 268.3821  91.6978 14.98324077 64413,6950.211,96.107,574.262,569.89,0.0
55758.0,STARLINK-5072,PAYLOAD,2024-04-30 11:31:17,14.98326481,0.0003119,69.9989,154.3561,269.4674,90.6127,0.00017522,1.998e-05,0.0,0 STARLINK-5072,1 55758U 23028T   24121.48006569  .00001998  00000-0  17522-3 0  9990,2 55758  69.9989 154.3561 0003119 269.4674  90.6127 14.98326481 64459,6950.204,96.107,574.237,569.901,0.0
55758.0,STARLINK-5072,PAYLOAD,2024-05-01 05:08:46,14.98331779,0.0003068,69.9991,152.5047,268.9491,91.1316,0.00011103,1.232e-05,0.0,0 STARLINK-5072,1 55758U 23028T   24122.21442465  .00001232  00000-0  11103-3 0  9991,2 55758  69.9991 152.5047 0003068 268.9491  91.1316 14.98331779 64569,6950.187,96.107,574.185,569.92,0.0
55758.0,STARLINK-5072,PAYLOAD,2024-05-01 11:33:18,14.98333858,0.0003149,69.9988,151.8315,270.5148,89.5651,9.9006e-05,1.089e-05,0.0,0 STARLINK-5072,1 55758U 23028T   24122.48146290  .00001089  00000-0  99006-4 0  9996,2 55758  69.9988 151.8315 0003149 270.5148  89.5651 14.98333858 64601,6950.181,96.107,574.235,569.857,0.0
55758.0,STARLINK-5072,PAYLOAD,2024-05-01 19:33:58,14.98335149,0.0003157,69.9987,150.9897,270.6105,89.4692,7.0533e-05,7.49e-06,0.0,0 STARLINK-5072,1 55758U 23028T   24122.81526175  .00000749  00000-0  70533-4 0  9993,2 55758  69.9987 150.9897 0003157 270.6105  89.4692 14.98335149 64652,6950.177,96.107,574.236,569.848,0.0
